<?xml version="1.0" encoding="UTF-8"?>
<gpx version="1.0" creator="GPSBabel - https://www.gpsbabel.org" xmlns="http://www.topografix.com/GPX/1/0">
  <time>2025-12-15T08:47:32.534Z</time>
  <bounds minlat="47.225860000" minlon="4.939710000" maxlat="47.316550000" maxlon="5.045200000"/>
  <trk>
    <trkseg>
      <trkpt lat="47.227600000" lon="4.976420000">
        <ele>262.000</ele>
      </trkpt>
      <trkpt lat="47.227570000" lon="4.976330000">
        <ele>262.000</ele>
      </trkpt>
      <trkpt lat="47.227550000" lon="4.976230000">
        <ele>262.000</ele>
      </trkpt>
      <trkpt lat="47.227310000" lon="4.975200000">
        <ele>263.000</ele>
      </trkpt>
      <trkpt lat="47.227260000" lon="4.974890000">
        <ele>264.000</ele>
      </trkpt>
      <trkpt lat="47.227200000" lon="4.973750000">
        <ele>266.000</ele>
      </trkpt>
      <trkpt lat="47.227190000" lon="4.973690000">
        <ele>267.000</ele>
      </trkpt>
      <trkpt lat="47.227150000" lon="4.973520000">
        <ele>268.000</ele>
      </trkpt>
      <trkpt lat="47.227090000" lon="4.973350000">
        <ele>269.000</ele>
      </trkpt>
      <trkpt lat="47.226820000" lon="4.973080000">
        <ele>270.000</ele>
      </trkpt>
      <trkpt lat="47.226540000" lon="4.972630000">
        <ele>272.000</ele>
      </trkpt>
      <trkpt lat="47.226450000" lon="4.972510000">
        <ele>273.000</ele>
      </trkpt>
      <trkpt lat="47.226410000" lon="4.971930000">
        <ele>274.000</ele>
      </trkpt>
      <trkpt lat="47.226350000" lon="4.971800000">
        <ele>275.000</ele>
      </trkpt>
      <trkpt lat="47.226140000" lon="4.971540000">
        <ele>276.000</ele>
      </trkpt>
      <trkpt lat="47.225970000" lon="4.971350000">
        <ele>277.000</ele>
      </trkpt>
      <trkpt lat="47.225930000" lon="4.971280000">
        <ele>277.000</ele>
      </trkpt>
      <trkpt lat="47.225920000" lon="4.971230000">
        <ele>277.000</ele>
      </trkpt>
      <trkpt lat="47.225900000" lon="4.971080000">
        <ele>277.000</ele>
      </trkpt>
      <trkpt lat="47.225880000" lon="4.970700000">
        <ele>277.000</ele>
      </trkpt>
      <trkpt lat="47.225870000" lon="4.970420000">
        <ele>277.000</ele>
      </trkpt>
      <trkpt lat="47.225860000" lon="4.970260000">
        <ele>277.000</ele>
      </trkpt>
      <trkpt lat="47.225860000" lon="4.970210000">
        <ele>276.000</ele>
      </trkpt>
      <trkpt lat="47.225870000" lon="4.970120000">
        <ele>276.000</ele>
      </trkpt>
      <trkpt lat="47.225960000" lon="4.969560000">
        <ele>276.000</ele>
      </trkpt>
      <trkpt lat="47.225960000" lon="4.969560000">
        <ele>276.000</ele>
      </trkpt>
      <trkpt lat="47.225960000" lon="4.969550000">
        <ele>275.000</ele>
      </trkpt>
      <trkpt lat="47.226000000" lon="4.969200000">
        <ele>275.000</ele>
      </trkpt>
      <trkpt lat="47.226080000" lon="4.969160000">
        <ele>275.000</ele>
      </trkpt>
      <trkpt lat="47.226350000" lon="4.969140000">
        <ele>274.000</ele>
      </trkpt>
      <trkpt lat="47.226460000" lon="4.969120000">
        <ele>274.000</ele>
      </trkpt>
      <trkpt lat="47.226600000" lon="4.969100000">
        <ele>274.000</ele>
      </trkpt>
      <trkpt lat="47.227030000" lon="4.968890000">
        <ele>274.000</ele>
      </trkpt>
      <trkpt lat="47.227100000" lon="4.968850000">
        <ele>274.000</ele>
      </trkpt>
      <trkpt lat="47.227140000" lon="4.968790000">
        <ele>275.000</ele>
      </trkpt>
      <trkpt lat="47.227200000" lon="4.968700000">
        <ele>275.000</ele>
      </trkpt>
      <trkpt lat="47.227400000" lon="4.968260000">
        <ele>275.000</ele>
      </trkpt>
      <trkpt lat="47.227650000" lon="4.967690000">
        <ele>275.000</ele>
      </trkpt>
      <trkpt lat="47.227760000" lon="4.967480000">
        <ele>276.000</ele>
      </trkpt>
      <trkpt lat="47.227810000" lon="4.967340000">
        <ele>276.000</ele>
      </trkpt>
      <trkpt lat="47.227960000" lon="4.966940000">
        <ele>277.000</ele>
      </trkpt>
      <trkpt lat="47.227980000" lon="4.966900000">
        <ele>277.000</ele>
      </trkpt>
      <trkpt lat="47.228020000" lon="4.966870000">
        <ele>278.000</ele>
      </trkpt>
      <trkpt lat="47.228060000" lon="4.966850000">
        <ele>278.000</ele>
      </trkpt>
      <trkpt lat="47.228100000" lon="4.966840000">
        <ele>278.000</ele>
      </trkpt>
      <trkpt lat="47.228140000" lon="4.966840000">
        <ele>278.000</ele>
      </trkpt>
      <trkpt lat="47.228180000" lon="4.966850000">
        <ele>279.000</ele>
      </trkpt>
      <trkpt lat="47.228260000" lon="4.966890000">
        <ele>279.000</ele>
      </trkpt>
      <trkpt lat="47.228670000" lon="4.967090000">
        <ele>279.000</ele>
      </trkpt>
      <trkpt lat="47.228800000" lon="4.967140000">
        <ele>280.000</ele>
      </trkpt>
      <trkpt lat="47.228930000" lon="4.967180000">
        <ele>281.000</ele>
      </trkpt>
      <trkpt lat="47.229040000" lon="4.967210000">
        <ele>281.000</ele>
      </trkpt>
      <trkpt lat="47.229040000" lon="4.967210000">
        <ele>282.000</ele>
      </trkpt>
      <trkpt lat="47.229360000" lon="4.967280000">
        <ele>282.000</ele>
      </trkpt>
      <trkpt lat="47.229690000" lon="4.967340000">
        <ele>283.000</ele>
      </trkpt>
      <trkpt lat="47.230160000" lon="4.967440000">
        <ele>284.000</ele>
      </trkpt>
      <trkpt lat="47.230510000" lon="4.967530000">
        <ele>285.000</ele>
      </trkpt>
      <trkpt lat="47.231050000" lon="4.967670000">
        <ele>287.000</ele>
      </trkpt>
      <trkpt lat="47.231660000" lon="4.967840000">
        <ele>288.000</ele>
      </trkpt>
      <trkpt lat="47.232250000" lon="4.968000000">
        <ele>289.000</ele>
      </trkpt>
      <trkpt lat="47.232350000" lon="4.968020000">
        <ele>290.000</ele>
      </trkpt>
      <trkpt lat="47.232420000" lon="4.968050000">
        <ele>291.000</ele>
      </trkpt>
      <trkpt lat="47.232500000" lon="4.968090000">
        <ele>291.000</ele>
      </trkpt>
      <trkpt lat="47.232580000" lon="4.968130000">
        <ele>291.000</ele>
      </trkpt>
      <trkpt lat="47.232750000" lon="4.968220000">
        <ele>291.000</ele>
      </trkpt>
      <trkpt lat="47.233390000" lon="4.968610000">
        <ele>291.000</ele>
      </trkpt>
      <trkpt lat="47.233620000" lon="4.968740000">
        <ele>291.000</ele>
      </trkpt>
      <trkpt lat="47.233850000" lon="4.968860000">
        <ele>291.000</ele>
      </trkpt>
      <trkpt lat="47.233960000" lon="4.968910000">
        <ele>291.000</ele>
      </trkpt>
      <trkpt lat="47.234190000" lon="4.969000000">
        <ele>291.000</ele>
      </trkpt>
      <trkpt lat="47.236160000" lon="4.969700000">
        <ele>291.000</ele>
      </trkpt>
      <trkpt lat="47.237340000" lon="4.970110000">
        <ele>290.000</ele>
      </trkpt>
      <trkpt lat="47.237600000" lon="4.970150000">
        <ele>289.000</ele>
      </trkpt>
      <trkpt lat="47.237770000" lon="4.970160000">
        <ele>289.000</ele>
      </trkpt>
      <trkpt lat="47.238170000" lon="4.970160000">
        <ele>288.000</ele>
      </trkpt>
      <trkpt lat="47.238330000" lon="4.970200000">
        <ele>288.000</ele>
      </trkpt>
      <trkpt lat="47.238370000" lon="4.970210000">
        <ele>288.000</ele>
      </trkpt>
      <trkpt lat="47.238820000" lon="4.970490000">
        <ele>288.000</ele>
      </trkpt>
      <trkpt lat="47.239020000" lon="4.970630000">
        <ele>288.000</ele>
      </trkpt>
      <trkpt lat="47.239150000" lon="4.970730000">
        <ele>288.000</ele>
      </trkpt>
      <trkpt lat="47.239240000" lon="4.970810000">
        <ele>288.000</ele>
      </trkpt>
      <trkpt lat="47.239340000" lon="4.970890000">
        <ele>289.000</ele>
      </trkpt>
      <trkpt lat="47.239480000" lon="4.970980000">
        <ele>289.000</ele>
      </trkpt>
      <trkpt lat="47.240070000" lon="4.971340000">
        <ele>289.000</ele>
      </trkpt>
      <trkpt lat="47.240610000" lon="4.971650000">
        <ele>288.000</ele>
      </trkpt>
      <trkpt lat="47.240910000" lon="4.971810000">
        <ele>287.000</ele>
      </trkpt>
      <trkpt lat="47.241070000" lon="4.971860000">
        <ele>286.000</ele>
      </trkpt>
      <trkpt lat="47.241280000" lon="4.971940000">
        <ele>285.000</ele>
      </trkpt>
      <trkpt lat="47.241410000" lon="4.971990000">
        <ele>284.000</ele>
      </trkpt>
      <trkpt lat="47.241530000" lon="4.972050000">
        <ele>284.000</ele>
      </trkpt>
      <trkpt lat="47.241610000" lon="4.972070000">
        <ele>283.000</ele>
      </trkpt>
      <trkpt lat="47.241680000" lon="4.972080000">
        <ele>282.000</ele>
      </trkpt>
      <trkpt lat="47.241760000" lon="4.972070000">
        <ele>282.000</ele>
      </trkpt>
      <trkpt lat="47.241840000" lon="4.972050000">
        <ele>281.000</ele>
      </trkpt>
      <trkpt lat="47.242030000" lon="4.971970000">
        <ele>281.000</ele>
      </trkpt>
      <trkpt lat="47.242150000" lon="4.971960000">
        <ele>282.000</ele>
      </trkpt>
      <trkpt lat="47.242290000" lon="4.971960000">
        <ele>282.000</ele>
      </trkpt>
      <trkpt lat="47.242400000" lon="4.971980000">
        <ele>282.000</ele>
      </trkpt>
      <trkpt lat="47.242470000" lon="4.971990000">
        <ele>283.000</ele>
      </trkpt>
      <trkpt lat="47.242540000" lon="4.972020000">
        <ele>283.000</ele>
      </trkpt>
      <trkpt lat="47.242780000" lon="4.972140000">
        <ele>283.000</ele>
      </trkpt>
      <trkpt lat="47.242930000" lon="4.972210000">
        <ele>284.000</ele>
      </trkpt>
      <trkpt lat="47.243000000" lon="4.972240000">
        <ele>285.000</ele>
      </trkpt>
      <trkpt lat="47.243080000" lon="4.972270000">
        <ele>285.000</ele>
      </trkpt>
      <trkpt lat="47.243160000" lon="4.972280000">
        <ele>286.000</ele>
      </trkpt>
      <trkpt lat="47.243260000" lon="4.972290000">
        <ele>286.000</ele>
      </trkpt>
      <trkpt lat="47.243310000" lon="4.972290000">
        <ele>286.000</ele>
      </trkpt>
      <trkpt lat="47.243350000" lon="4.972300000">
        <ele>287.000</ele>
      </trkpt>
      <trkpt lat="47.243400000" lon="4.972310000">
        <ele>287.000</ele>
      </trkpt>
      <trkpt lat="47.243460000" lon="4.972340000">
        <ele>287.000</ele>
      </trkpt>
      <trkpt lat="47.243530000" lon="4.972390000">
        <ele>287.000</ele>
      </trkpt>
      <trkpt lat="47.243820000" lon="4.972640000">
        <ele>288.000</ele>
      </trkpt>
      <trkpt lat="47.243940000" lon="4.972730000">
        <ele>289.000</ele>
      </trkpt>
      <trkpt lat="47.244070000" lon="4.972810000">
        <ele>289.000</ele>
      </trkpt>
      <trkpt lat="47.244150000" lon="4.972840000">
        <ele>289.000</ele>
      </trkpt>
      <trkpt lat="47.244240000" lon="4.972860000">
        <ele>289.000</ele>
      </trkpt>
      <trkpt lat="47.244310000" lon="4.972870000">
        <ele>289.000</ele>
      </trkpt>
      <trkpt lat="47.244370000" lon="4.972870000">
        <ele>289.000</ele>
      </trkpt>
      <trkpt lat="47.244420000" lon="4.972870000">
        <ele>289.000</ele>
      </trkpt>
      <trkpt lat="47.244480000" lon="4.972880000">
        <ele>289.000</ele>
      </trkpt>
      <trkpt lat="47.244530000" lon="4.972900000">
        <ele>289.000</ele>
      </trkpt>
      <trkpt lat="47.244910000" lon="4.973070000">
        <ele>289.000</ele>
      </trkpt>
      <trkpt lat="47.245270000" lon="4.973190000">
        <ele>288.000</ele>
      </trkpt>
      <trkpt lat="47.245380000" lon="4.973230000">
        <ele>288.000</ele>
      </trkpt>
      <trkpt lat="47.245570000" lon="4.973340000">
        <ele>288.000</ele>
      </trkpt>
      <trkpt lat="47.245670000" lon="4.973400000">
        <ele>288.000</ele>
      </trkpt>
      <trkpt lat="47.245780000" lon="4.973470000">
        <ele>288.000</ele>
      </trkpt>
      <trkpt lat="47.245910000" lon="4.973580000">
        <ele>288.000</ele>
      </trkpt>
      <trkpt lat="47.245980000" lon="4.973630000">
        <ele>289.000</ele>
      </trkpt>
      <trkpt lat="47.246050000" lon="4.973700000">
        <ele>289.000</ele>
      </trkpt>
      <trkpt lat="47.246160000" lon="4.973780000">
        <ele>289.000</ele>
      </trkpt>
      <trkpt lat="47.246300000" lon="4.973860000">
        <ele>289.000</ele>
      </trkpt>
      <trkpt lat="47.246590000" lon="4.973970000">
        <ele>290.000</ele>
      </trkpt>
      <trkpt lat="47.246760000" lon="4.974010000">
        <ele>291.000</ele>
      </trkpt>
      <trkpt lat="47.246920000" lon="4.974020000">
        <ele>291.000</ele>
      </trkpt>
      <trkpt lat="47.247020000" lon="4.974040000">
        <ele>292.000</ele>
      </trkpt>
      <trkpt lat="47.247270000" lon="4.974140000">
        <ele>292.000</ele>
      </trkpt>
      <trkpt lat="47.247360000" lon="4.974180000">
        <ele>293.000</ele>
      </trkpt>
      <trkpt lat="47.247940000" lon="4.974470000">
        <ele>293.000</ele>
      </trkpt>
      <trkpt lat="47.248420000" lon="4.974700000">
        <ele>293.000</ele>
      </trkpt>
      <trkpt lat="47.248550000" lon="4.974760000">
        <ele>294.000</ele>
      </trkpt>
      <trkpt lat="47.248560000" lon="4.974770000">
        <ele>294.000</ele>
      </trkpt>
      <trkpt lat="47.248690000" lon="4.974840000">
        <ele>294.000</ele>
      </trkpt>
      <trkpt lat="47.248830000" lon="4.974890000">
        <ele>294.000</ele>
      </trkpt>
      <trkpt lat="47.248990000" lon="4.974950000">
        <ele>294.000</ele>
      </trkpt>
      <trkpt lat="47.249450000" lon="4.975150000">
        <ele>294.000</ele>
      </trkpt>
      <trkpt lat="47.249680000" lon="4.975270000">
        <ele>293.000</ele>
      </trkpt>
      <trkpt lat="47.249840000" lon="4.975350000">
        <ele>293.000</ele>
      </trkpt>
      <trkpt lat="47.250000000" lon="4.975430000">
        <ele>292.000</ele>
      </trkpt>
      <trkpt lat="47.250190000" lon="4.975510000">
        <ele>292.000</ele>
      </trkpt>
      <trkpt lat="47.251040000" lon="4.975860000">
        <ele>290.000</ele>
      </trkpt>
      <trkpt lat="47.251350000" lon="4.975990000">
        <ele>289.000</ele>
      </trkpt>
      <trkpt lat="47.251510000" lon="4.976060000">
        <ele>288.000</ele>
      </trkpt>
      <trkpt lat="47.252760000" lon="4.976580000">
        <ele>286.000</ele>
      </trkpt>
      <trkpt lat="47.252760000" lon="4.976580000">
        <ele>285.000</ele>
      </trkpt>
      <trkpt lat="47.252900000" lon="4.976630000">
        <ele>284.000</ele>
      </trkpt>
      <trkpt lat="47.253510000" lon="4.976900000">
        <ele>285.000</ele>
      </trkpt>
      <trkpt lat="47.253550000" lon="4.976910000">
        <ele>285.000</ele>
      </trkpt>
      <trkpt lat="47.253760000" lon="4.976970000">
        <ele>286.000</ele>
      </trkpt>
      <trkpt lat="47.253860000" lon="4.976980000">
        <ele>287.000</ele>
      </trkpt>
      <trkpt lat="47.254880000" lon="4.977080000">
        <ele>289.000</ele>
      </trkpt>
      <trkpt lat="47.255720000" lon="4.977150000">
        <ele>290.000</ele>
      </trkpt>
      <trkpt lat="47.255890000" lon="4.977170000">
        <ele>290.000</ele>
      </trkpt>
      <trkpt lat="47.256040000" lon="4.977230000">
        <ele>290.000</ele>
      </trkpt>
      <trkpt lat="47.256320000" lon="4.977370000">
        <ele>290.000</ele>
      </trkpt>
      <trkpt lat="47.257240000" lon="4.977750000">
        <ele>289.000</ele>
      </trkpt>
      <trkpt lat="47.257680000" lon="4.977960000">
        <ele>288.000</ele>
      </trkpt>
      <trkpt lat="47.257920000" lon="4.978090000">
        <ele>288.000</ele>
      </trkpt>
      <trkpt lat="47.258040000" lon="4.978180000">
        <ele>287.000</ele>
      </trkpt>
      <trkpt lat="47.258160000" lon="4.978290000">
        <ele>287.000</ele>
      </trkpt>
      <trkpt lat="47.258560000" lon="4.978890000">
        <ele>286.000</ele>
      </trkpt>
      <trkpt lat="47.258690000" lon="4.979030000">
        <ele>286.000</ele>
      </trkpt>
      <trkpt lat="47.258820000" lon="4.979110000">
        <ele>285.000</ele>
      </trkpt>
      <trkpt lat="47.258900000" lon="4.979150000">
        <ele>285.000</ele>
      </trkpt>
      <trkpt lat="47.258990000" lon="4.979170000">
        <ele>285.000</ele>
      </trkpt>
      <trkpt lat="47.259590000" lon="4.979180000">
        <ele>286.000</ele>
      </trkpt>
      <trkpt lat="47.259910000" lon="4.979280000">
        <ele>286.000</ele>
      </trkpt>
      <trkpt lat="47.260110000" lon="4.979330000">
        <ele>287.000</ele>
      </trkpt>
      <trkpt lat="47.260190000" lon="4.979350000">
        <ele>287.000</ele>
      </trkpt>
      <trkpt lat="47.260290000" lon="4.979400000">
        <ele>288.000</ele>
      </trkpt>
      <trkpt lat="47.260360000" lon="4.979470000">
        <ele>288.000</ele>
      </trkpt>
      <trkpt lat="47.260540000" lon="4.979730000">
        <ele>289.000</ele>
      </trkpt>
      <trkpt lat="47.260570000" lon="4.979790000">
        <ele>289.000</ele>
      </trkpt>
      <trkpt lat="47.260590000" lon="4.979840000">
        <ele>289.000</ele>
      </trkpt>
      <trkpt lat="47.260580000" lon="4.979860000">
        <ele>289.000</ele>
      </trkpt>
      <trkpt lat="47.260560000" lon="4.980110000">
        <ele>289.000</ele>
      </trkpt>
      <trkpt lat="47.260560000" lon="4.980280000">
        <ele>289.000</ele>
      </trkpt>
      <trkpt lat="47.260570000" lon="4.980350000">
        <ele>288.000</ele>
      </trkpt>
      <trkpt lat="47.260600000" lon="4.980380000">
        <ele>288.000</ele>
      </trkpt>
      <trkpt lat="47.260650000" lon="4.980440000">
        <ele>288.000</ele>
      </trkpt>
      <trkpt lat="47.260710000" lon="4.980520000">
        <ele>288.000</ele>
      </trkpt>
      <trkpt lat="47.260800000" lon="4.980640000">
        <ele>287.000</ele>
      </trkpt>
      <trkpt lat="47.261030000" lon="4.980860000">
        <ele>287.000</ele>
      </trkpt>
      <trkpt lat="47.261110000" lon="4.980920000">
        <ele>286.000</ele>
      </trkpt>
      <trkpt lat="47.261330000" lon="4.981130000">
        <ele>286.000</ele>
      </trkpt>
      <trkpt lat="47.261370000" lon="4.981170000">
        <ele>285.000</ele>
      </trkpt>
      <trkpt lat="47.261390000" lon="4.981210000">
        <ele>285.000</ele>
      </trkpt>
      <trkpt lat="47.261410000" lon="4.981260000">
        <ele>285.000</ele>
      </trkpt>
      <trkpt lat="47.261420000" lon="4.981310000">
        <ele>284.000</ele>
      </trkpt>
      <trkpt lat="47.261710000" lon="4.981730000">
        <ele>284.000</ele>
      </trkpt>
      <trkpt lat="47.261720000" lon="4.981750000">
        <ele>283.000</ele>
      </trkpt>
      <trkpt lat="47.262140000" lon="4.982580000">
        <ele>282.000</ele>
      </trkpt>
      <trkpt lat="47.262280000" lon="4.982860000">
        <ele>282.000</ele>
      </trkpt>
      <trkpt lat="47.262430000" lon="4.983090000">
        <ele>281.000</ele>
      </trkpt>
      <trkpt lat="47.262490000" lon="4.983180000">
        <ele>280.000</ele>
      </trkpt>
      <trkpt lat="47.262520000" lon="4.983230000">
        <ele>280.000</ele>
      </trkpt>
      <trkpt lat="47.262620000" lon="4.983390000">
        <ele>279.000</ele>
      </trkpt>
      <trkpt lat="47.262910000" lon="4.983720000">
        <ele>279.000</ele>
      </trkpt>
      <trkpt lat="47.263070000" lon="4.983850000">
        <ele>278.000</ele>
      </trkpt>
      <trkpt lat="47.263330000" lon="4.984050000">
        <ele>278.000</ele>
      </trkpt>
      <trkpt lat="47.263810000" lon="4.984300000">
        <ele>277.000</ele>
      </trkpt>
      <trkpt lat="47.264420000" lon="4.984500000">
        <ele>276.000</ele>
      </trkpt>
      <trkpt lat="47.264930000" lon="4.984730000">
        <ele>275.000</ele>
      </trkpt>
      <trkpt lat="47.265300000" lon="4.984940000">
        <ele>274.000</ele>
      </trkpt>
      <trkpt lat="47.265680000" lon="4.985150000">
        <ele>274.000</ele>
      </trkpt>
      <trkpt lat="47.266030000" lon="4.985370000">
        <ele>274.000</ele>
      </trkpt>
      <trkpt lat="47.266050000" lon="4.985390000">
        <ele>274.000</ele>
      </trkpt>
      <trkpt lat="47.267020000" lon="4.985890000">
        <ele>274.000</ele>
      </trkpt>
      <trkpt lat="47.267430000" lon="4.986080000">
        <ele>274.000</ele>
      </trkpt>
      <trkpt lat="47.267630000" lon="4.986220000">
        <ele>274.000</ele>
      </trkpt>
      <trkpt lat="47.267740000" lon="4.986330000">
        <ele>274.000</ele>
      </trkpt>
      <trkpt lat="47.267810000" lon="4.986440000">
        <ele>274.000</ele>
      </trkpt>
      <trkpt lat="47.268160000" lon="4.986700000">
        <ele>274.000</ele>
      </trkpt>
      <trkpt lat="47.268490000" lon="4.986920000">
        <ele>274.000</ele>
      </trkpt>
      <trkpt lat="47.269160000" lon="4.987400000">
        <ele>274.000</ele>
      </trkpt>
      <trkpt lat="47.269460000" lon="4.987500000">
        <ele>274.000</ele>
      </trkpt>
      <trkpt lat="47.269770000" lon="4.987610000">
        <ele>273.000</ele>
      </trkpt>
      <trkpt lat="47.270060000" lon="4.987890000">
        <ele>273.000</ele>
      </trkpt>
      <trkpt lat="47.270120000" lon="4.987950000">
        <ele>272.000</ele>
      </trkpt>
      <trkpt lat="47.270310000" lon="4.988130000">
        <ele>272.000</ele>
      </trkpt>
      <trkpt lat="47.270490000" lon="4.988310000">
        <ele>272.000</ele>
      </trkpt>
      <trkpt lat="47.270750000" lon="4.988540000">
        <ele>271.000</ele>
      </trkpt>
      <trkpt lat="47.270870000" lon="4.988630000">
        <ele>271.000</ele>
      </trkpt>
      <trkpt lat="47.271070000" lon="4.988740000">
        <ele>271.000</ele>
      </trkpt>
      <trkpt lat="47.271160000" lon="4.988780000">
        <ele>271.000</ele>
      </trkpt>
      <trkpt lat="47.271370000" lon="4.988810000">
        <ele>271.000</ele>
      </trkpt>
      <trkpt lat="47.271500000" lon="4.988890000">
        <ele>270.000</ele>
      </trkpt>
      <trkpt lat="47.271510000" lon="4.988900000">
        <ele>270.000</ele>
      </trkpt>
      <trkpt lat="47.271780000" lon="4.989090000">
        <ele>270.000</ele>
      </trkpt>
      <trkpt lat="47.272480000" lon="4.989620000">
        <ele>270.000</ele>
      </trkpt>
      <trkpt lat="47.272600000" lon="4.989730000">
        <ele>270.000</ele>
      </trkpt>
      <trkpt lat="47.272640000" lon="4.989770000">
        <ele>270.000</ele>
      </trkpt>
      <trkpt lat="47.272670000" lon="4.989830000">
        <ele>270.000</ele>
      </trkpt>
      <trkpt lat="47.272690000" lon="4.989860000">
        <ele>270.000</ele>
      </trkpt>
      <trkpt lat="47.272760000" lon="4.989770000">
        <ele>270.000</ele>
      </trkpt>
      <trkpt lat="47.272890000" lon="4.989640000">
        <ele>270.000</ele>
      </trkpt>
      <trkpt lat="47.273110000" lon="4.989400000">
        <ele>270.000</ele>
      </trkpt>
      <trkpt lat="47.273260000" lon="4.989250000">
        <ele>270.000</ele>
      </trkpt>
      <trkpt lat="47.273390000" lon="4.989170000">
        <ele>270.000</ele>
      </trkpt>
      <trkpt lat="47.273590000" lon="4.989010000">
        <ele>270.000</ele>
      </trkpt>
      <trkpt lat="47.273790000" lon="4.988810000">
        <ele>270.000</ele>
      </trkpt>
      <trkpt lat="47.273940000" lon="4.988650000">
        <ele>270.000</ele>
      </trkpt>
      <trkpt lat="47.273960000" lon="4.988630000">
        <ele>270.000</ele>
      </trkpt>
      <trkpt lat="47.273990000" lon="4.988600000">
        <ele>270.000</ele>
      </trkpt>
      <trkpt lat="47.274140000" lon="4.988420000">
        <ele>270.000</ele>
      </trkpt>
      <trkpt lat="47.274220000" lon="4.988240000">
        <ele>271.000</ele>
      </trkpt>
      <trkpt lat="47.274370000" lon="4.987920000">
        <ele>271.000</ele>
      </trkpt>
      <trkpt lat="47.274510000" lon="4.987610000">
        <ele>272.000</ele>
      </trkpt>
      <trkpt lat="47.274530000" lon="4.987580000">
        <ele>272.000</ele>
      </trkpt>
      <trkpt lat="47.274890000" lon="4.987230000">
        <ele>273.000</ele>
      </trkpt>
      <trkpt lat="47.275120000" lon="4.987080000">
        <ele>274.000</ele>
      </trkpt>
      <trkpt lat="47.275310000" lon="4.986970000">
        <ele>275.000</ele>
      </trkpt>
      <trkpt lat="47.275890000" lon="4.986610000">
        <ele>276.000</ele>
      </trkpt>
      <trkpt lat="47.275970000" lon="4.986560000">
        <ele>277.000</ele>
      </trkpt>
      <trkpt lat="47.276140000" lon="4.986450000">
        <ele>278.000</ele>
      </trkpt>
      <trkpt lat="47.276360000" lon="4.986230000">
        <ele>278.000</ele>
      </trkpt>
      <trkpt lat="47.276870000" lon="4.985860000">
        <ele>279.000</ele>
      </trkpt>
      <trkpt lat="47.277020000" lon="4.985780000">
        <ele>279.000</ele>
      </trkpt>
      <trkpt lat="47.277510000" lon="4.985380000">
        <ele>280.000</ele>
      </trkpt>
      <trkpt lat="47.277570000" lon="4.985290000">
        <ele>281.000</ele>
      </trkpt>
      <trkpt lat="47.277730000" lon="4.985120000">
        <ele>281.000</ele>
      </trkpt>
      <trkpt lat="47.278210000" lon="4.984520000">
        <ele>281.000</ele>
      </trkpt>
      <trkpt lat="47.278210000" lon="4.984520000">
        <ele>282.000</ele>
      </trkpt>
      <trkpt lat="47.278240000" lon="4.984480000">
        <ele>282.000</ele>
      </trkpt>
      <trkpt lat="47.278480000" lon="4.984210000">
        <ele>282.000</ele>
      </trkpt>
      <trkpt lat="47.278570000" lon="4.984090000">
        <ele>283.000</ele>
      </trkpt>
      <trkpt lat="47.278690000" lon="4.983930000">
        <ele>283.000</ele>
      </trkpt>
      <trkpt lat="47.278910000" lon="4.983550000">
        <ele>283.000</ele>
      </trkpt>
      <trkpt lat="47.279270000" lon="4.982890000">
        <ele>284.000</ele>
      </trkpt>
      <trkpt lat="47.279300000" lon="4.982840000">
        <ele>284.000</ele>
      </trkpt>
      <trkpt lat="47.279620000" lon="4.982260000">
        <ele>285.000</ele>
      </trkpt>
      <trkpt lat="47.279820000" lon="4.981850000">
        <ele>286.000</ele>
      </trkpt>
      <trkpt lat="47.280050000" lon="4.981360000">
        <ele>287.000</ele>
      </trkpt>
      <trkpt lat="47.280130000" lon="4.981180000">
        <ele>287.000</ele>
      </trkpt>
      <trkpt lat="47.280500000" lon="4.980380000">
        <ele>287.000</ele>
      </trkpt>
      <trkpt lat="47.280560000" lon="4.980240000">
        <ele>287.000</ele>
      </trkpt>
      <trkpt lat="47.280840000" lon="4.979640000">
        <ele>287.000</ele>
      </trkpt>
      <trkpt lat="47.280960000" lon="4.979400000">
        <ele>287.000</ele>
      </trkpt>
      <trkpt lat="47.281080000" lon="4.979190000">
        <ele>287.000</ele>
      </trkpt>
      <trkpt lat="47.281160000" lon="4.979080000">
        <ele>287.000</ele>
      </trkpt>
      <trkpt lat="47.281240000" lon="4.978990000">
        <ele>288.000</ele>
      </trkpt>
      <trkpt lat="47.281370000" lon="4.978890000">
        <ele>289.000</ele>
      </trkpt>
      <trkpt lat="47.281530000" lon="4.978800000">
        <ele>291.000</ele>
      </trkpt>
      <trkpt lat="47.281650000" lon="4.978750000">
        <ele>292.000</ele>
      </trkpt>
      <trkpt lat="47.281750000" lon="4.978730000">
        <ele>294.000</ele>
      </trkpt>
      <trkpt lat="47.281850000" lon="4.978720000">
        <ele>295.000</ele>
      </trkpt>
      <trkpt lat="47.281970000" lon="4.978730000">
        <ele>297.000</ele>
      </trkpt>
      <trkpt lat="47.282100000" lon="4.978760000">
        <ele>298.000</ele>
      </trkpt>
      <trkpt lat="47.282240000" lon="4.978820000">
        <ele>300.000</ele>
      </trkpt>
      <trkpt lat="47.282370000" lon="4.978910000">
        <ele>302.000</ele>
      </trkpt>
      <trkpt lat="47.282550000" lon="4.979070000">
        <ele>304.000</ele>
      </trkpt>
      <trkpt lat="47.282970000" lon="4.979470000">
        <ele>308.000</ele>
      </trkpt>
      <trkpt lat="47.283160000" lon="4.979670000">
        <ele>311.000</ele>
      </trkpt>
      <trkpt lat="47.283360000" lon="4.979870000">
        <ele>314.000</ele>
      </trkpt>
      <trkpt lat="47.283530000" lon="4.980050000">
        <ele>316.000</ele>
      </trkpt>
      <trkpt lat="47.283620000" lon="4.980120000">
        <ele>318.000</ele>
      </trkpt>
      <trkpt lat="47.283670000" lon="4.980150000">
        <ele>319.000</ele>
      </trkpt>
      <trkpt lat="47.283720000" lon="4.980160000">
        <ele>320.000</ele>
      </trkpt>
      <trkpt lat="47.283750000" lon="4.980140000">
        <ele>321.000</ele>
      </trkpt>
      <trkpt lat="47.283780000" lon="4.980120000">
        <ele>321.000</ele>
      </trkpt>
      <trkpt lat="47.283800000" lon="4.980080000">
        <ele>322.000</ele>
      </trkpt>
      <trkpt lat="47.283810000" lon="4.980030000">
        <ele>322.000</ele>
      </trkpt>
      <trkpt lat="47.283810000" lon="4.979960000">
        <ele>322.000</ele>
      </trkpt>
      <trkpt lat="47.283800000" lon="4.979880000">
        <ele>323.000</ele>
      </trkpt>
      <trkpt lat="47.283570000" lon="4.979450000">
        <ele>324.000</ele>
      </trkpt>
      <trkpt lat="47.283280000" lon="4.978930000">
        <ele>326.000</ele>
      </trkpt>
      <trkpt lat="47.283240000" lon="4.978840000">
        <ele>327.000</ele>
      </trkpt>
      <trkpt lat="47.283230000" lon="4.978770000">
        <ele>328.000</ele>
      </trkpt>
      <trkpt lat="47.283230000" lon="4.978720000">
        <ele>329.000</ele>
      </trkpt>
      <trkpt lat="47.283250000" lon="4.978670000">
        <ele>329.000</ele>
      </trkpt>
      <trkpt lat="47.283270000" lon="4.978630000">
        <ele>330.000</ele>
      </trkpt>
      <trkpt lat="47.283300000" lon="4.978610000">
        <ele>330.000</ele>
      </trkpt>
      <trkpt lat="47.283330000" lon="4.978600000">
        <ele>331.000</ele>
      </trkpt>
      <trkpt lat="47.283370000" lon="4.978610000">
        <ele>331.000</ele>
      </trkpt>
      <trkpt lat="47.283410000" lon="4.978640000">
        <ele>331.000</ele>
      </trkpt>
      <trkpt lat="47.283480000" lon="4.978740000">
        <ele>331.000</ele>
      </trkpt>
      <trkpt lat="47.283790000" lon="4.979250000">
        <ele>333.000</ele>
      </trkpt>
      <trkpt lat="47.283890000" lon="4.979410000">
        <ele>334.000</ele>
      </trkpt>
      <trkpt lat="47.283940000" lon="4.979460000">
        <ele>334.000</ele>
      </trkpt>
      <trkpt lat="47.283960000" lon="4.979470000">
        <ele>335.000</ele>
      </trkpt>
      <trkpt lat="47.283990000" lon="4.979480000">
        <ele>335.000</ele>
      </trkpt>
      <trkpt lat="47.284010000" lon="4.979480000">
        <ele>336.000</ele>
      </trkpt>
      <trkpt lat="47.284040000" lon="4.979470000">
        <ele>336.000</ele>
      </trkpt>
      <trkpt lat="47.284060000" lon="4.979470000">
        <ele>336.000</ele>
      </trkpt>
      <trkpt lat="47.284080000" lon="4.979450000">
        <ele>336.000</ele>
      </trkpt>
      <trkpt lat="47.284100000" lon="4.979440000">
        <ele>337.000</ele>
      </trkpt>
      <trkpt lat="47.284110000" lon="4.979420000">
        <ele>337.000</ele>
      </trkpt>
      <trkpt lat="47.284120000" lon="4.979390000">
        <ele>337.000</ele>
      </trkpt>
      <trkpt lat="47.284130000" lon="4.979370000">
        <ele>337.000</ele>
      </trkpt>
      <trkpt lat="47.284140000" lon="4.979340000">
        <ele>337.000</ele>
      </trkpt>
      <trkpt lat="47.284150000" lon="4.979310000">
        <ele>337.000</ele>
      </trkpt>
      <trkpt lat="47.284150000" lon="4.979270000">
        <ele>337.000</ele>
      </trkpt>
      <trkpt lat="47.284150000" lon="4.979240000">
        <ele>338.000</ele>
      </trkpt>
      <trkpt lat="47.284140000" lon="4.979210000">
        <ele>338.000</ele>
      </trkpt>
      <trkpt lat="47.284130000" lon="4.979170000">
        <ele>338.000</ele>
      </trkpt>
      <trkpt lat="47.284100000" lon="4.979110000">
        <ele>338.000</ele>
      </trkpt>
      <trkpt lat="47.284070000" lon="4.979050000">
        <ele>338.000</ele>
      </trkpt>
      <trkpt lat="47.283770000" lon="4.978470000">
        <ele>339.000</ele>
      </trkpt>
      <trkpt lat="47.283680000" lon="4.978300000">
        <ele>340.000</ele>
      </trkpt>
      <trkpt lat="47.283610000" lon="4.978140000">
        <ele>341.000</ele>
      </trkpt>
      <trkpt lat="47.283590000" lon="4.978070000">
        <ele>342.000</ele>
      </trkpt>
      <trkpt lat="47.283560000" lon="4.978000000">
        <ele>343.000</ele>
      </trkpt>
      <trkpt lat="47.283520000" lon="4.977840000">
        <ele>343.000</ele>
      </trkpt>
      <trkpt lat="47.283510000" lon="4.977780000">
        <ele>344.000</ele>
      </trkpt>
      <trkpt lat="47.283500000" lon="4.977720000">
        <ele>344.000</ele>
      </trkpt>
      <trkpt lat="47.283480000" lon="4.977620000">
        <ele>345.000</ele>
      </trkpt>
      <trkpt lat="47.283470000" lon="4.977500000">
        <ele>345.000</ele>
      </trkpt>
      <trkpt lat="47.283460000" lon="4.977380000">
        <ele>346.000</ele>
      </trkpt>
      <trkpt lat="47.283460000" lon="4.977250000">
        <ele>346.000</ele>
      </trkpt>
      <trkpt lat="47.283460000" lon="4.976450000">
        <ele>348.000</ele>
      </trkpt>
      <trkpt lat="47.283490000" lon="4.975260000">
        <ele>350.000</ele>
      </trkpt>
      <trkpt lat="47.283500000" lon="4.974770000">
        <ele>353.000</ele>
      </trkpt>
      <trkpt lat="47.283520000" lon="4.974530000">
        <ele>355.000</ele>
      </trkpt>
      <trkpt lat="47.283540000" lon="4.974290000">
        <ele>357.000</ele>
      </trkpt>
      <trkpt lat="47.283560000" lon="4.974070000">
        <ele>358.000</ele>
      </trkpt>
      <trkpt lat="47.283580000" lon="4.973950000">
        <ele>360.000</ele>
      </trkpt>
      <trkpt lat="47.283600000" lon="4.973850000">
        <ele>361.000</ele>
      </trkpt>
      <trkpt lat="47.283630000" lon="4.973670000">
        <ele>362.000</ele>
      </trkpt>
      <trkpt lat="47.283670000" lon="4.973490000">
        <ele>363.000</ele>
      </trkpt>
      <trkpt lat="47.283720000" lon="4.973310000">
        <ele>364.000</ele>
      </trkpt>
      <trkpt lat="47.283770000" lon="4.973150000">
        <ele>365.000</ele>
      </trkpt>
      <trkpt lat="47.283800000" lon="4.973060000">
        <ele>366.000</ele>
      </trkpt>
      <trkpt lat="47.283830000" lon="4.972970000">
        <ele>366.000</ele>
      </trkpt>
      <trkpt lat="47.284000000" lon="4.972510000">
        <ele>368.000</ele>
      </trkpt>
      <trkpt lat="47.284180000" lon="4.972010000">
        <ele>370.000</ele>
      </trkpt>
      <trkpt lat="47.284250000" lon="4.971790000">
        <ele>371.000</ele>
      </trkpt>
      <trkpt lat="47.284300000" lon="4.971640000">
        <ele>373.000</ele>
      </trkpt>
      <trkpt lat="47.284350000" lon="4.971440000">
        <ele>374.000</ele>
      </trkpt>
      <trkpt lat="47.284400000" lon="4.971240000">
        <ele>376.000</ele>
      </trkpt>
      <trkpt lat="47.284440000" lon="4.971050000">
        <ele>377.000</ele>
      </trkpt>
      <trkpt lat="47.284490000" lon="4.970800000">
        <ele>378.000</ele>
      </trkpt>
      <trkpt lat="47.284530000" lon="4.970550000">
        <ele>379.000</ele>
      </trkpt>
      <trkpt lat="47.284570000" lon="4.970330000">
        <ele>381.000</ele>
      </trkpt>
      <trkpt lat="47.284590000" lon="4.970110000">
        <ele>382.000</ele>
      </trkpt>
      <trkpt lat="47.284640000" lon="4.969580000">
        <ele>384.000</ele>
      </trkpt>
      <trkpt lat="47.284720000" lon="4.968720000">
        <ele>386.000</ele>
      </trkpt>
      <trkpt lat="47.284740000" lon="4.968570000">
        <ele>388.000</ele>
      </trkpt>
      <trkpt lat="47.284760000" lon="4.968420000">
        <ele>390.000</ele>
      </trkpt>
      <trkpt lat="47.284780000" lon="4.968270000">
        <ele>391.000</ele>
      </trkpt>
      <trkpt lat="47.284810000" lon="4.968120000">
        <ele>392.000</ele>
      </trkpt>
      <trkpt lat="47.284840000" lon="4.967980000">
        <ele>393.000</ele>
      </trkpt>
      <trkpt lat="47.284880000" lon="4.967850000">
        <ele>394.000</ele>
      </trkpt>
      <trkpt lat="47.284920000" lon="4.967720000">
        <ele>395.000</ele>
      </trkpt>
      <trkpt lat="47.284960000" lon="4.967580000">
        <ele>395.000</ele>
      </trkpt>
      <trkpt lat="47.285020000" lon="4.967460000">
        <ele>396.000</ele>
      </trkpt>
      <trkpt lat="47.285070000" lon="4.967330000">
        <ele>397.000</ele>
      </trkpt>
      <trkpt lat="47.285130000" lon="4.967220000">
        <ele>397.000</ele>
      </trkpt>
      <trkpt lat="47.285190000" lon="4.967100000">
        <ele>398.000</ele>
      </trkpt>
      <trkpt lat="47.285270000" lon="4.966970000">
        <ele>399.000</ele>
      </trkpt>
      <trkpt lat="47.285340000" lon="4.966870000">
        <ele>399.000</ele>
      </trkpt>
      <trkpt lat="47.285410000" lon="4.966770000">
        <ele>400.000</ele>
      </trkpt>
      <trkpt lat="47.285490000" lon="4.966680000">
        <ele>401.000</ele>
      </trkpt>
      <trkpt lat="47.285560000" lon="4.966600000">
        <ele>401.000</ele>
      </trkpt>
      <trkpt lat="47.285640000" lon="4.966520000">
        <ele>402.000</ele>
      </trkpt>
      <trkpt lat="47.285720000" lon="4.966450000">
        <ele>402.000</ele>
      </trkpt>
      <trkpt lat="47.285760000" lon="4.966410000">
        <ele>403.000</ele>
      </trkpt>
      <trkpt lat="47.285800000" lon="4.966370000">
        <ele>403.000</ele>
      </trkpt>
      <trkpt lat="47.286050000" lon="4.966180000">
        <ele>404.000</ele>
      </trkpt>
      <trkpt lat="47.286430000" lon="4.965900000">
        <ele>405.000</ele>
      </trkpt>
      <trkpt lat="47.286770000" lon="4.965630000">
        <ele>406.000</ele>
      </trkpt>
      <trkpt lat="47.286890000" lon="4.965510000">
        <ele>408.000</ele>
      </trkpt>
      <trkpt lat="47.287000000" lon="4.965390000">
        <ele>409.000</ele>
      </trkpt>
      <trkpt lat="47.287100000" lon="4.965240000">
        <ele>411.000</ele>
      </trkpt>
      <trkpt lat="47.287210000" lon="4.965050000">
        <ele>412.000</ele>
      </trkpt>
      <trkpt lat="47.287260000" lon="4.964940000">
        <ele>414.000</ele>
      </trkpt>
      <trkpt lat="47.287310000" lon="4.964820000">
        <ele>415.000</ele>
      </trkpt>
      <trkpt lat="47.287370000" lon="4.964650000">
        <ele>416.000</ele>
      </trkpt>
      <trkpt lat="47.287480000" lon="4.964340000">
        <ele>418.000</ele>
      </trkpt>
      <trkpt lat="47.287590000" lon="4.964050000">
        <ele>419.000</ele>
      </trkpt>
      <trkpt lat="47.287810000" lon="4.963460000">
        <ele>422.000</ele>
      </trkpt>
      <trkpt lat="47.288170000" lon="4.962490000">
        <ele>424.000</ele>
      </trkpt>
      <trkpt lat="47.288290000" lon="4.962160000">
        <ele>425.000</ele>
      </trkpt>
      <trkpt lat="47.288370000" lon="4.961950000">
        <ele>426.000</ele>
      </trkpt>
      <trkpt lat="47.288480000" lon="4.961660000">
        <ele>427.000</ele>
      </trkpt>
      <trkpt lat="47.288600000" lon="4.961340000">
        <ele>427.000</ele>
      </trkpt>
      <trkpt lat="47.288650000" lon="4.961200000">
        <ele>428.000</ele>
      </trkpt>
      <trkpt lat="47.288700000" lon="4.961040000">
        <ele>428.000</ele>
      </trkpt>
      <trkpt lat="47.288760000" lon="4.960840000">
        <ele>428.000</ele>
      </trkpt>
      <trkpt lat="47.288810000" lon="4.960620000">
        <ele>428.000</ele>
      </trkpt>
      <trkpt lat="47.288920000" lon="4.960180000">
        <ele>429.000</ele>
      </trkpt>
      <trkpt lat="47.288950000" lon="4.960050000">
        <ele>429.000</ele>
      </trkpt>
      <trkpt lat="47.289030000" lon="4.959660000">
        <ele>429.000</ele>
      </trkpt>
      <trkpt lat="47.289050000" lon="4.959550000">
        <ele>429.000</ele>
      </trkpt>
      <trkpt lat="47.289070000" lon="4.959450000">
        <ele>429.000</ele>
      </trkpt>
      <trkpt lat="47.289090000" lon="4.959350000">
        <ele>430.000</ele>
      </trkpt>
      <trkpt lat="47.289100000" lon="4.959240000">
        <ele>430.000</ele>
      </trkpt>
      <trkpt lat="47.289100000" lon="4.959100000">
        <ele>430.000</ele>
      </trkpt>
      <trkpt lat="47.289120000" lon="4.958690000">
        <ele>430.000</ele>
      </trkpt>
      <trkpt lat="47.289120000" lon="4.958590000">
        <ele>430.000</ele>
      </trkpt>
      <trkpt lat="47.289120000" lon="4.958530000">
        <ele>430.000</ele>
      </trkpt>
      <trkpt lat="47.289130000" lon="4.958450000">
        <ele>430.000</ele>
      </trkpt>
      <trkpt lat="47.289130000" lon="4.958380000">
        <ele>430.000</ele>
      </trkpt>
      <trkpt lat="47.289140000" lon="4.958290000">
        <ele>430.000</ele>
      </trkpt>
      <trkpt lat="47.289170000" lon="4.958130000">
        <ele>430.000</ele>
      </trkpt>
      <trkpt lat="47.289190000" lon="4.957970000">
        <ele>430.000</ele>
      </trkpt>
      <trkpt lat="47.289220000" lon="4.957800000">
        <ele>430.000</ele>
      </trkpt>
      <trkpt lat="47.289410000" lon="4.956780000">
        <ele>430.000</ele>
      </trkpt>
      <trkpt lat="47.289600000" lon="4.955750000">
        <ele>429.000</ele>
      </trkpt>
      <trkpt lat="47.289940000" lon="4.953850000">
        <ele>427.000</ele>
      </trkpt>
      <trkpt lat="47.289950000" lon="4.953750000">
        <ele>426.000</ele>
      </trkpt>
      <trkpt lat="47.289980000" lon="4.953640000">
        <ele>425.000</ele>
      </trkpt>
      <trkpt lat="47.290010000" lon="4.953530000">
        <ele>424.000</ele>
      </trkpt>
      <trkpt lat="47.290040000" lon="4.953420000">
        <ele>423.000</ele>
      </trkpt>
      <trkpt lat="47.290070000" lon="4.953320000">
        <ele>422.000</ele>
      </trkpt>
      <trkpt lat="47.290100000" lon="4.953240000">
        <ele>422.000</ele>
      </trkpt>
      <trkpt lat="47.290160000" lon="4.953120000">
        <ele>421.000</ele>
      </trkpt>
      <trkpt lat="47.290190000" lon="4.953050000">
        <ele>421.000</ele>
      </trkpt>
      <trkpt lat="47.290190000" lon="4.953050000">
        <ele>421.000</ele>
      </trkpt>
      <trkpt lat="47.290560000" lon="4.952290000">
        <ele>421.000</ele>
      </trkpt>
      <trkpt lat="47.290680000" lon="4.952020000">
        <ele>420.000</ele>
      </trkpt>
      <trkpt lat="47.290800000" lon="4.951760000">
        <ele>420.000</ele>
      </trkpt>
      <trkpt lat="47.290910000" lon="4.951480000">
        <ele>420.000</ele>
      </trkpt>
      <trkpt lat="47.290970000" lon="4.951350000">
        <ele>420.000</ele>
      </trkpt>
      <trkpt lat="47.291020000" lon="4.951210000">
        <ele>419.000</ele>
      </trkpt>
      <trkpt lat="47.291120000" lon="4.950920000">
        <ele>419.000</ele>
      </trkpt>
      <trkpt lat="47.291330000" lon="4.950300000">
        <ele>419.000</ele>
      </trkpt>
      <trkpt lat="47.291480000" lon="4.949840000">
        <ele>419.000</ele>
      </trkpt>
      <trkpt lat="47.291530000" lon="4.949740000">
        <ele>419.000</ele>
      </trkpt>
      <trkpt lat="47.291580000" lon="4.949610000">
        <ele>418.000</ele>
      </trkpt>
      <trkpt lat="47.291630000" lon="4.949520000">
        <ele>418.000</ele>
      </trkpt>
      <trkpt lat="47.291680000" lon="4.949420000">
        <ele>418.000</ele>
      </trkpt>
      <trkpt lat="47.291760000" lon="4.949290000">
        <ele>418.000</ele>
      </trkpt>
      <trkpt lat="47.291830000" lon="4.949180000">
        <ele>418.000</ele>
      </trkpt>
      <trkpt lat="47.291900000" lon="4.949100000">
        <ele>418.000</ele>
      </trkpt>
      <trkpt lat="47.292030000" lon="4.948950000">
        <ele>418.000</ele>
      </trkpt>
      <trkpt lat="47.292290000" lon="4.948680000">
        <ele>418.000</ele>
      </trkpt>
      <trkpt lat="47.292470000" lon="4.948480000">
        <ele>418.000</ele>
      </trkpt>
      <trkpt lat="47.292610000" lon="4.948310000">
        <ele>418.000</ele>
      </trkpt>
      <trkpt lat="47.292820000" lon="4.948000000">
        <ele>418.000</ele>
      </trkpt>
      <trkpt lat="47.293080000" lon="4.947610000">
        <ele>420.000</ele>
      </trkpt>
      <trkpt lat="47.293240000" lon="4.947400000">
        <ele>421.000</ele>
      </trkpt>
      <trkpt lat="47.293290000" lon="4.947350000">
        <ele>422.000</ele>
      </trkpt>
      <trkpt lat="47.293330000" lon="4.947300000">
        <ele>423.000</ele>
      </trkpt>
      <trkpt lat="47.293430000" lon="4.947200000">
        <ele>424.000</ele>
      </trkpt>
      <trkpt lat="47.293530000" lon="4.947100000">
        <ele>425.000</ele>
      </trkpt>
      <trkpt lat="47.293590000" lon="4.947060000">
        <ele>425.000</ele>
      </trkpt>
      <trkpt lat="47.293640000" lon="4.947020000">
        <ele>426.000</ele>
      </trkpt>
      <trkpt lat="47.293750000" lon="4.946940000">
        <ele>427.000</ele>
      </trkpt>
      <trkpt lat="47.293820000" lon="4.946890000">
        <ele>427.000</ele>
      </trkpt>
      <trkpt lat="47.293900000" lon="4.946850000">
        <ele>428.000</ele>
      </trkpt>
      <trkpt lat="47.293910000" lon="4.946840000">
        <ele>429.000</ele>
      </trkpt>
      <trkpt lat="47.293910000" lon="4.946840000">
        <ele>429.000</ele>
      </trkpt>
      <trkpt lat="47.293980000" lon="4.946810000">
        <ele>429.000</ele>
      </trkpt>
      <trkpt lat="47.294050000" lon="4.946780000">
        <ele>430.000</ele>
      </trkpt>
      <trkpt lat="47.294130000" lon="4.946750000">
        <ele>430.000</ele>
      </trkpt>
      <trkpt lat="47.294210000" lon="4.946730000">
        <ele>431.000</ele>
      </trkpt>
      <trkpt lat="47.294280000" lon="4.946710000">
        <ele>431.000</ele>
      </trkpt>
      <trkpt lat="47.294360000" lon="4.946690000">
        <ele>432.000</ele>
      </trkpt>
      <trkpt lat="47.294430000" lon="4.946670000">
        <ele>432.000</ele>
      </trkpt>
      <trkpt lat="47.294960000" lon="4.946530000">
        <ele>434.000</ele>
      </trkpt>
      <trkpt lat="47.295030000" lon="4.946490000">
        <ele>435.000</ele>
      </trkpt>
      <trkpt lat="47.295110000" lon="4.946440000">
        <ele>437.000</ele>
      </trkpt>
      <trkpt lat="47.295180000" lon="4.946370000">
        <ele>438.000</ele>
      </trkpt>
      <trkpt lat="47.295220000" lon="4.946310000">
        <ele>438.000</ele>
      </trkpt>
      <trkpt lat="47.295250000" lon="4.946240000">
        <ele>439.000</ele>
      </trkpt>
      <trkpt lat="47.295280000" lon="4.946160000">
        <ele>440.000</ele>
      </trkpt>
      <trkpt lat="47.295300000" lon="4.946050000">
        <ele>440.000</ele>
      </trkpt>
      <trkpt lat="47.295290000" lon="4.945970000">
        <ele>441.000</ele>
      </trkpt>
      <trkpt lat="47.295290000" lon="4.945870000">
        <ele>441.000</ele>
      </trkpt>
      <trkpt lat="47.295310000" lon="4.945770000">
        <ele>442.000</ele>
      </trkpt>
      <trkpt lat="47.295340000" lon="4.945680000">
        <ele>442.000</ele>
      </trkpt>
      <trkpt lat="47.295400000" lon="4.945610000">
        <ele>443.000</ele>
      </trkpt>
      <trkpt lat="47.295460000" lon="4.945560000">
        <ele>443.000</ele>
      </trkpt>
      <trkpt lat="47.295480000" lon="4.945490000">
        <ele>444.000</ele>
      </trkpt>
      <trkpt lat="47.295500000" lon="4.945400000">
        <ele>444.000</ele>
      </trkpt>
      <trkpt lat="47.295520000" lon="4.945280000">
        <ele>444.000</ele>
      </trkpt>
      <trkpt lat="47.295540000" lon="4.945170000">
        <ele>445.000</ele>
      </trkpt>
      <trkpt lat="47.295540000" lon="4.945080000">
        <ele>445.000</ele>
      </trkpt>
      <trkpt lat="47.295540000" lon="4.944980000">
        <ele>445.000</ele>
      </trkpt>
      <trkpt lat="47.295530000" lon="4.944520000">
        <ele>445.000</ele>
      </trkpt>
      <trkpt lat="47.295530000" lon="4.944520000">
        <ele>445.000</ele>
      </trkpt>
      <trkpt lat="47.295520000" lon="4.944130000">
        <ele>446.000</ele>
      </trkpt>
      <trkpt lat="47.295520000" lon="4.944090000">
        <ele>446.000</ele>
      </trkpt>
      <trkpt lat="47.295510000" lon="4.944040000">
        <ele>446.000</ele>
      </trkpt>
      <trkpt lat="47.295260000" lon="4.943190000">
        <ele>446.000</ele>
      </trkpt>
      <trkpt lat="47.295220000" lon="4.943010000">
        <ele>447.000</ele>
      </trkpt>
      <trkpt lat="47.295180000" lon="4.942690000">
        <ele>447.000</ele>
      </trkpt>
      <trkpt lat="47.295150000" lon="4.942560000">
        <ele>448.000</ele>
      </trkpt>
      <trkpt lat="47.295120000" lon="4.942430000">
        <ele>448.000</ele>
      </trkpt>
      <trkpt lat="47.295080000" lon="4.942270000">
        <ele>449.000</ele>
      </trkpt>
      <trkpt lat="47.295040000" lon="4.942130000">
        <ele>449.000</ele>
      </trkpt>
      <trkpt lat="47.295030000" lon="4.942070000">
        <ele>449.000</ele>
      </trkpt>
      <trkpt lat="47.295000000" lon="4.941950000">
        <ele>450.000</ele>
      </trkpt>
      <trkpt lat="47.294990000" lon="4.941870000">
        <ele>450.000</ele>
      </trkpt>
      <trkpt lat="47.294980000" lon="4.941790000">
        <ele>450.000</ele>
      </trkpt>
      <trkpt lat="47.294980000" lon="4.941680000">
        <ele>451.000</ele>
      </trkpt>
      <trkpt lat="47.294980000" lon="4.941600000">
        <ele>451.000</ele>
      </trkpt>
      <trkpt lat="47.294980000" lon="4.941410000">
        <ele>451.000</ele>
      </trkpt>
      <trkpt lat="47.294990000" lon="4.941320000">
        <ele>452.000</ele>
      </trkpt>
      <trkpt lat="47.295010000" lon="4.941230000">
        <ele>452.000</ele>
      </trkpt>
      <trkpt lat="47.295040000" lon="4.941100000">
        <ele>452.000</ele>
      </trkpt>
      <trkpt lat="47.295070000" lon="4.940950000">
        <ele>453.000</ele>
      </trkpt>
      <trkpt lat="47.295110000" lon="4.940790000">
        <ele>453.000</ele>
      </trkpt>
      <trkpt lat="47.295160000" lon="4.940600000">
        <ele>453.000</ele>
      </trkpt>
      <trkpt lat="47.295320000" lon="4.940190000">
        <ele>454.000</ele>
      </trkpt>
      <trkpt lat="47.295400000" lon="4.940040000">
        <ele>454.000</ele>
      </trkpt>
      <trkpt lat="47.295460000" lon="4.939960000">
        <ele>455.000</ele>
      </trkpt>
      <trkpt lat="47.295530000" lon="4.939870000">
        <ele>455.000</ele>
      </trkpt>
      <trkpt lat="47.295590000" lon="4.939790000">
        <ele>455.000</ele>
      </trkpt>
      <trkpt lat="47.295630000" lon="4.939710000">
        <ele>454.000</ele>
      </trkpt>
      <trkpt lat="47.295660000" lon="4.939750000">
        <ele>454.000</ele>
      </trkpt>
      <trkpt lat="47.295700000" lon="4.939750000">
        <ele>454.000</ele>
      </trkpt>
      <trkpt lat="47.296050000" lon="4.939790000">
        <ele>454.000</ele>
      </trkpt>
      <trkpt lat="47.296180000" lon="4.939820000">
        <ele>454.000</ele>
      </trkpt>
      <trkpt lat="47.296180000" lon="4.939820000">
        <ele>453.000</ele>
      </trkpt>
      <trkpt lat="47.296180000" lon="4.939820000">
        <ele>453.000</ele>
      </trkpt>
      <trkpt lat="47.296300000" lon="4.939860000">
        <ele>453.000</ele>
      </trkpt>
      <trkpt lat="47.296450000" lon="4.939920000">
        <ele>453.000</ele>
      </trkpt>
      <trkpt lat="47.296550000" lon="4.939980000">
        <ele>452.000</ele>
      </trkpt>
      <trkpt lat="47.296610000" lon="4.940000000">
        <ele>452.000</ele>
      </trkpt>
      <trkpt lat="47.296850000" lon="4.940050000">
        <ele>452.000</ele>
      </trkpt>
      <trkpt lat="47.296990000" lon="4.940080000">
        <ele>451.000</ele>
      </trkpt>
      <trkpt lat="47.297440000" lon="4.940080000">
        <ele>450.000</ele>
      </trkpt>
      <trkpt lat="47.297470000" lon="4.940090000">
        <ele>449.000</ele>
      </trkpt>
      <trkpt lat="47.297490000" lon="4.940100000">
        <ele>449.000</ele>
      </trkpt>
      <trkpt lat="47.297510000" lon="4.940120000">
        <ele>449.000</ele>
      </trkpt>
      <trkpt lat="47.297530000" lon="4.940150000">
        <ele>448.000</ele>
      </trkpt>
      <trkpt lat="47.297550000" lon="4.940190000">
        <ele>448.000</ele>
      </trkpt>
      <trkpt lat="47.297600000" lon="4.940380000">
        <ele>448.000</ele>
      </trkpt>
      <trkpt lat="47.297620000" lon="4.940420000">
        <ele>447.000</ele>
      </trkpt>
      <trkpt lat="47.297550000" lon="4.940480000">
        <ele>447.000</ele>
      </trkpt>
      <trkpt lat="47.297480000" lon="4.940550000">
        <ele>446.000</ele>
      </trkpt>
      <trkpt lat="47.297430000" lon="4.940600000">
        <ele>446.000</ele>
      </trkpt>
      <trkpt lat="47.297390000" lon="4.940660000">
        <ele>446.000</ele>
      </trkpt>
      <trkpt lat="47.297320000" lon="4.940760000">
        <ele>445.000</ele>
      </trkpt>
      <trkpt lat="47.297260000" lon="4.940850000">
        <ele>445.000</ele>
      </trkpt>
      <trkpt lat="47.297190000" lon="4.940990000">
        <ele>444.000</ele>
      </trkpt>
      <trkpt lat="47.297120000" lon="4.941140000">
        <ele>444.000</ele>
      </trkpt>
      <trkpt lat="47.297110000" lon="4.941170000">
        <ele>444.000</ele>
      </trkpt>
      <trkpt lat="47.297110000" lon="4.941170000">
        <ele>443.000</ele>
      </trkpt>
      <trkpt lat="47.297060000" lon="4.941310000">
        <ele>443.000</ele>
      </trkpt>
      <trkpt lat="47.297010000" lon="4.941490000">
        <ele>442.000</ele>
      </trkpt>
      <trkpt lat="47.296820000" lon="4.942300000">
        <ele>441.000</ele>
      </trkpt>
      <trkpt lat="47.296800000" lon="4.942400000">
        <ele>440.000</ele>
      </trkpt>
      <trkpt lat="47.296440000" lon="4.943960000">
        <ele>441.000</ele>
      </trkpt>
      <trkpt lat="47.296220000" lon="4.944880000">
        <ele>442.000</ele>
      </trkpt>
      <trkpt lat="47.296200000" lon="4.944980000">
        <ele>442.000</ele>
      </trkpt>
      <trkpt lat="47.296180000" lon="4.945060000">
        <ele>443.000</ele>
      </trkpt>
      <trkpt lat="47.296150000" lon="4.945240000">
        <ele>443.000</ele>
      </trkpt>
      <trkpt lat="47.296120000" lon="4.945310000">
        <ele>443.000</ele>
      </trkpt>
      <trkpt lat="47.296090000" lon="4.945390000">
        <ele>443.000</ele>
      </trkpt>
      <trkpt lat="47.296060000" lon="4.945450000">
        <ele>443.000</ele>
      </trkpt>
      <trkpt lat="47.296020000" lon="4.945510000">
        <ele>443.000</ele>
      </trkpt>
      <trkpt lat="47.295930000" lon="4.945630000">
        <ele>442.000</ele>
      </trkpt>
      <trkpt lat="47.295900000" lon="4.945670000">
        <ele>442.000</ele>
      </trkpt>
      <trkpt lat="47.295870000" lon="4.945710000">
        <ele>442.000</ele>
      </trkpt>
      <trkpt lat="47.295850000" lon="4.945750000">
        <ele>442.000</ele>
      </trkpt>
      <trkpt lat="47.295830000" lon="4.945780000">
        <ele>442.000</ele>
      </trkpt>
      <trkpt lat="47.295830000" lon="4.945810000">
        <ele>442.000</ele>
      </trkpt>
      <trkpt lat="47.295810000" lon="4.945880000">
        <ele>442.000</ele>
      </trkpt>
      <trkpt lat="47.295810000" lon="4.945980000">
        <ele>442.000</ele>
      </trkpt>
      <trkpt lat="47.295790000" lon="4.946080000">
        <ele>442.000</ele>
      </trkpt>
      <trkpt lat="47.295750000" lon="4.946170000">
        <ele>442.000</ele>
      </trkpt>
      <trkpt lat="47.295750000" lon="4.946280000">
        <ele>441.000</ele>
      </trkpt>
      <trkpt lat="47.295760000" lon="4.946420000">
        <ele>441.000</ele>
      </trkpt>
      <trkpt lat="47.295800000" lon="4.946630000">
        <ele>441.000</ele>
      </trkpt>
      <trkpt lat="47.295890000" lon="4.947060000">
        <ele>441.000</ele>
      </trkpt>
      <trkpt lat="47.296120000" lon="4.948080000">
        <ele>440.000</ele>
      </trkpt>
      <trkpt lat="47.296350000" lon="4.948790000">
        <ele>439.000</ele>
      </trkpt>
      <trkpt lat="47.296350000" lon="4.948790000">
        <ele>439.000</ele>
      </trkpt>
      <trkpt lat="47.296460000" lon="4.949110000">
        <ele>438.000</ele>
      </trkpt>
      <trkpt lat="47.296880000" lon="4.950400000">
        <ele>438.000</ele>
      </trkpt>
      <trkpt lat="47.296980000" lon="4.950710000">
        <ele>437.000</ele>
      </trkpt>
      <trkpt lat="47.297130000" lon="4.951130000">
        <ele>437.000</ele>
      </trkpt>
      <trkpt lat="47.297460000" lon="4.952020000">
        <ele>436.000</ele>
      </trkpt>
      <trkpt lat="47.297850000" lon="4.953080000">
        <ele>435.000</ele>
      </trkpt>
      <trkpt lat="47.298020000" lon="4.953530000">
        <ele>434.000</ele>
      </trkpt>
      <trkpt lat="47.298650000" lon="4.954960000">
        <ele>432.000</ele>
      </trkpt>
      <trkpt lat="47.298840000" lon="4.955390000">
        <ele>430.000</ele>
      </trkpt>
      <trkpt lat="47.299440000" lon="4.956880000">
        <ele>428.000</ele>
      </trkpt>
      <trkpt lat="47.299780000" lon="4.957760000">
        <ele>426.000</ele>
      </trkpt>
      <trkpt lat="47.299960000" lon="4.958210000">
        <ele>424.000</ele>
      </trkpt>
      <trkpt lat="47.300130000" lon="4.958610000">
        <ele>423.000</ele>
      </trkpt>
      <trkpt lat="47.300470000" lon="4.959360000">
        <ele>422.000</ele>
      </trkpt>
      <trkpt lat="47.300860000" lon="4.960200000">
        <ele>421.000</ele>
      </trkpt>
      <trkpt lat="47.301100000" lon="4.960750000">
        <ele>420.000</ele>
      </trkpt>
      <trkpt lat="47.301370000" lon="4.961400000">
        <ele>420.000</ele>
      </trkpt>
      <trkpt lat="47.301770000" lon="4.962380000">
        <ele>420.000</ele>
      </trkpt>
      <trkpt lat="47.301960000" lon="4.962860000">
        <ele>420.000</ele>
      </trkpt>
      <trkpt lat="47.302040000" lon="4.963070000">
        <ele>419.000</ele>
      </trkpt>
      <trkpt lat="47.302120000" lon="4.963320000">
        <ele>419.000</ele>
      </trkpt>
      <trkpt lat="47.302280000" lon="4.963790000">
        <ele>418.000</ele>
      </trkpt>
      <trkpt lat="47.302380000" lon="4.964080000">
        <ele>417.000</ele>
      </trkpt>
      <trkpt lat="47.302470000" lon="4.964420000">
        <ele>416.000</ele>
      </trkpt>
      <trkpt lat="47.302790000" lon="4.965790000">
        <ele>413.000</ele>
      </trkpt>
      <trkpt lat="47.302840000" lon="4.966010000">
        <ele>411.000</ele>
      </trkpt>
      <trkpt lat="47.302910000" lon="4.966500000">
        <ele>409.000</ele>
      </trkpt>
      <trkpt lat="47.302980000" lon="4.967010000">
        <ele>407.000</ele>
      </trkpt>
      <trkpt lat="47.303130000" lon="4.968460000">
        <ele>404.000</ele>
      </trkpt>
      <trkpt lat="47.303220000" lon="4.969410000">
        <ele>400.000</ele>
      </trkpt>
      <trkpt lat="47.303360000" lon="4.970840000">
        <ele>396.000</ele>
      </trkpt>
      <trkpt lat="47.303460000" lon="4.971680000">
        <ele>392.000</ele>
      </trkpt>
      <trkpt lat="47.303550000" lon="4.972460000">
        <ele>388.000</ele>
      </trkpt>
      <trkpt lat="47.304030000" lon="4.976340000">
        <ele>381.000</ele>
      </trkpt>
      <trkpt lat="47.304100000" lon="4.976860000">
        <ele>376.000</ele>
      </trkpt>
      <trkpt lat="47.304140000" lon="4.977120000">
        <ele>373.000</ele>
      </trkpt>
      <trkpt lat="47.304190000" lon="4.977370000">
        <ele>370.000</ele>
      </trkpt>
      <trkpt lat="47.304310000" lon="4.977880000">
        <ele>368.000</ele>
      </trkpt>
      <trkpt lat="47.304390000" lon="4.978180000">
        <ele>366.000</ele>
      </trkpt>
      <trkpt lat="47.304480000" lon="4.978480000">
        <ele>365.000</ele>
      </trkpt>
      <trkpt lat="47.304580000" lon="4.978790000">
        <ele>364.000</ele>
      </trkpt>
      <trkpt lat="47.304690000" lon="4.979090000">
        <ele>363.000</ele>
      </trkpt>
      <trkpt lat="47.305980000" lon="4.982310000">
        <ele>360.000</ele>
      </trkpt>
      <trkpt lat="47.306110000" lon="4.982620000">
        <ele>357.000</ele>
      </trkpt>
      <trkpt lat="47.306330000" lon="4.983170000">
        <ele>355.000</ele>
      </trkpt>
      <trkpt lat="47.306400000" lon="4.983380000">
        <ele>353.000</ele>
      </trkpt>
      <trkpt lat="47.306440000" lon="4.983500000">
        <ele>352.000</ele>
      </trkpt>
      <trkpt lat="47.306480000" lon="4.983630000">
        <ele>351.000</ele>
      </trkpt>
      <trkpt lat="47.306550000" lon="4.983870000">
        <ele>350.000</ele>
      </trkpt>
      <trkpt lat="47.306600000" lon="4.984070000">
        <ele>350.000</ele>
      </trkpt>
      <trkpt lat="47.306650000" lon="4.984270000">
        <ele>349.000</ele>
      </trkpt>
      <trkpt lat="47.306830000" lon="4.985000000">
        <ele>348.000</ele>
      </trkpt>
      <trkpt lat="47.306960000" lon="4.985540000">
        <ele>347.000</ele>
      </trkpt>
      <trkpt lat="47.307060000" lon="4.985960000">
        <ele>346.000</ele>
      </trkpt>
      <trkpt lat="47.307120000" lon="4.986200000">
        <ele>346.000</ele>
      </trkpt>
      <trkpt lat="47.307180000" lon="4.986420000">
        <ele>346.000</ele>
      </trkpt>
      <trkpt lat="47.307240000" lon="4.986620000">
        <ele>345.000</ele>
      </trkpt>
      <trkpt lat="47.307280000" lon="4.986750000">
        <ele>345.000</ele>
      </trkpt>
      <trkpt lat="47.307330000" lon="4.986910000">
        <ele>345.000</ele>
      </trkpt>
      <trkpt lat="47.307400000" lon="4.987090000">
        <ele>345.000</ele>
      </trkpt>
      <trkpt lat="47.307600000" lon="4.987660000">
        <ele>345.000</ele>
      </trkpt>
      <trkpt lat="47.307620000" lon="4.987710000">
        <ele>345.000</ele>
      </trkpt>
      <trkpt lat="47.307790000" lon="4.988160000">
        <ele>344.000</ele>
      </trkpt>
      <trkpt lat="47.308080000" lon="4.988930000">
        <ele>344.000</ele>
      </trkpt>
      <trkpt lat="47.308170000" lon="4.989180000">
        <ele>344.000</ele>
      </trkpt>
      <trkpt lat="47.308340000" lon="4.989730000">
        <ele>343.000</ele>
      </trkpt>
      <trkpt lat="47.308430000" lon="4.990050000">
        <ele>343.000</ele>
      </trkpt>
      <trkpt lat="47.308510000" lon="4.990370000">
        <ele>342.000</ele>
      </trkpt>
      <trkpt lat="47.308670000" lon="4.991060000">
        <ele>341.000</ele>
      </trkpt>
      <trkpt lat="47.308810000" lon="4.991720000">
        <ele>338.000</ele>
      </trkpt>
      <trkpt lat="47.308940000" lon="4.992380000">
        <ele>336.000</ele>
      </trkpt>
      <trkpt lat="47.308990000" lon="4.992610000">
        <ele>334.000</ele>
      </trkpt>
      <trkpt lat="47.309020000" lon="4.992760000">
        <ele>332.000</ele>
      </trkpt>
      <trkpt lat="47.309050000" lon="4.992900000">
        <ele>331.000</ele>
      </trkpt>
      <trkpt lat="47.309260000" lon="4.993530000">
        <ele>329.000</ele>
      </trkpt>
      <trkpt lat="47.309520000" lon="4.994580000">
        <ele>327.000</ele>
      </trkpt>
      <trkpt lat="47.309610000" lon="4.994940000">
        <ele>326.000</ele>
      </trkpt>
      <trkpt lat="47.309650000" lon="4.995100000">
        <ele>324.000</ele>
      </trkpt>
      <trkpt lat="47.309710000" lon="4.995280000">
        <ele>323.000</ele>
      </trkpt>
      <trkpt lat="47.309860000" lon="4.995670000">
        <ele>322.000</ele>
      </trkpt>
      <trkpt lat="47.310020000" lon="4.996060000">
        <ele>321.000</ele>
      </trkpt>
      <trkpt lat="47.310210000" lon="4.996420000">
        <ele>319.000</ele>
      </trkpt>
      <trkpt lat="47.310500000" lon="4.996990000">
        <ele>318.000</ele>
      </trkpt>
      <trkpt lat="47.310590000" lon="4.997200000">
        <ele>317.000</ele>
      </trkpt>
      <trkpt lat="47.310660000" lon="4.997380000">
        <ele>316.000</ele>
      </trkpt>
      <trkpt lat="47.310700000" lon="4.997500000">
        <ele>315.000</ele>
      </trkpt>
      <trkpt lat="47.310730000" lon="4.997620000">
        <ele>314.000</ele>
      </trkpt>
      <trkpt lat="47.310770000" lon="4.997800000">
        <ele>313.000</ele>
      </trkpt>
      <trkpt lat="47.310820000" lon="4.998080000">
        <ele>311.000</ele>
      </trkpt>
      <trkpt lat="47.310860000" lon="4.998410000">
        <ele>310.000</ele>
      </trkpt>
      <trkpt lat="47.310900000" lon="4.998710000">
        <ele>308.000</ele>
      </trkpt>
      <trkpt lat="47.310940000" lon="4.998940000">
        <ele>306.000</ele>
      </trkpt>
      <trkpt lat="47.310990000" lon="4.999170000">
        <ele>304.000</ele>
      </trkpt>
      <trkpt lat="47.311070000" lon="4.999590000">
        <ele>302.000</ele>
      </trkpt>
      <trkpt lat="47.311160000" lon="5.000060000">
        <ele>300.000</ele>
      </trkpt>
      <trkpt lat="47.311230000" lon="5.000500000">
        <ele>297.000</ele>
      </trkpt>
      <trkpt lat="47.311250000" lon="5.000630000">
        <ele>295.000</ele>
      </trkpt>
      <trkpt lat="47.311300000" lon="5.000910000">
        <ele>292.000</ele>
      </trkpt>
      <trkpt lat="47.311320000" lon="5.001080000">
        <ele>290.000</ele>
      </trkpt>
      <trkpt lat="47.311470000" lon="5.001820000">
        <ele>287.000</ele>
      </trkpt>
      <trkpt lat="47.311730000" lon="5.003020000">
        <ele>282.000</ele>
      </trkpt>
      <trkpt lat="47.311790000" lon="5.003390000">
        <ele>278.000</ele>
      </trkpt>
      <trkpt lat="47.311840000" lon="5.004090000">
        <ele>274.000</ele>
      </trkpt>
      <trkpt lat="47.311890000" lon="5.004390000">
        <ele>271.000</ele>
      </trkpt>
      <trkpt lat="47.311910000" lon="5.004530000">
        <ele>269.000</ele>
      </trkpt>
      <trkpt lat="47.311930000" lon="5.004660000">
        <ele>268.000</ele>
      </trkpt>
      <trkpt lat="47.311970000" lon="5.004860000">
        <ele>266.000</ele>
      </trkpt>
      <trkpt lat="47.312100000" lon="5.005640000">
        <ele>264.000</ele>
      </trkpt>
      <trkpt lat="47.312120000" lon="5.005760000">
        <ele>263.000</ele>
      </trkpt>
      <trkpt lat="47.312170000" lon="5.006150000">
        <ele>261.000</ele>
      </trkpt>
      <trkpt lat="47.312270000" lon="5.006800000">
        <ele>259.000</ele>
      </trkpt>
      <trkpt lat="47.312300000" lon="5.007130000">
        <ele>257.000</ele>
      </trkpt>
      <trkpt lat="47.312350000" lon="5.007760000">
        <ele>255.000</ele>
      </trkpt>
      <trkpt lat="47.312390000" lon="5.008250000">
        <ele>252.000</ele>
      </trkpt>
      <trkpt lat="47.312460000" lon="5.008790000">
        <ele>251.000</ele>
      </trkpt>
      <trkpt lat="47.312500000" lon="5.009000000">
        <ele>249.000</ele>
      </trkpt>
      <trkpt lat="47.312710000" lon="5.010030000">
        <ele>248.000</ele>
      </trkpt>
      <trkpt lat="47.312760000" lon="5.010280000">
        <ele>247.000</ele>
      </trkpt>
      <trkpt lat="47.312810000" lon="5.010540000">
        <ele>246.000</ele>
      </trkpt>
      <trkpt lat="47.312850000" lon="5.010700000">
        <ele>246.000</ele>
      </trkpt>
      <trkpt lat="47.312940000" lon="5.011150000">
        <ele>245.000</ele>
      </trkpt>
      <trkpt lat="47.313080000" lon="5.011850000">
        <ele>245.000</ele>
      </trkpt>
      <trkpt lat="47.313210000" lon="5.012520000">
        <ele>245.000</ele>
      </trkpt>
      <trkpt lat="47.313250000" lon="5.012730000">
        <ele>245.000</ele>
      </trkpt>
      <trkpt lat="47.313430000" lon="5.013730000">
        <ele>245.000</ele>
      </trkpt>
      <trkpt lat="47.313440000" lon="5.013800000">
        <ele>245.000</ele>
      </trkpt>
      <trkpt lat="47.313450000" lon="5.013840000">
        <ele>244.000</ele>
      </trkpt>
      <trkpt lat="47.313460000" lon="5.014010000">
        <ele>244.000</ele>
      </trkpt>
      <trkpt lat="47.313470000" lon="5.014110000">
        <ele>244.000</ele>
      </trkpt>
      <trkpt lat="47.313490000" lon="5.014250000">
        <ele>243.000</ele>
      </trkpt>
      <trkpt lat="47.313580000" lon="5.015310000">
        <ele>242.000</ele>
      </trkpt>
      <trkpt lat="47.313600000" lon="5.015470000">
        <ele>240.000</ele>
      </trkpt>
      <trkpt lat="47.313710000" lon="5.016550000">
        <ele>238.000</ele>
      </trkpt>
      <trkpt lat="47.313720000" lon="5.016700000">
        <ele>237.000</ele>
      </trkpt>
      <trkpt lat="47.313810000" lon="5.017570000">
        <ele>236.000</ele>
      </trkpt>
      <trkpt lat="47.313830000" lon="5.017700000">
        <ele>235.000</ele>
      </trkpt>
      <trkpt lat="47.313900000" lon="5.018440000">
        <ele>235.000</ele>
      </trkpt>
      <trkpt lat="47.314000000" lon="5.019320000">
        <ele>235.000</ele>
      </trkpt>
      <trkpt lat="47.314050000" lon="5.019740000">
        <ele>235.000</ele>
      </trkpt>
      <trkpt lat="47.314080000" lon="5.019900000">
        <ele>235.000</ele>
      </trkpt>
      <trkpt lat="47.314150000" lon="5.020350000">
        <ele>235.000</ele>
      </trkpt>
      <trkpt lat="47.314240000" lon="5.020750000">
        <ele>235.000</ele>
      </trkpt>
      <trkpt lat="47.314450000" lon="5.021530000">
        <ele>234.000</ele>
      </trkpt>
      <trkpt lat="47.314480000" lon="5.021680000">
        <ele>234.000</ele>
      </trkpt>
      <trkpt lat="47.314630000" lon="5.022180000">
        <ele>233.000</ele>
      </trkpt>
      <trkpt lat="47.314760000" lon="5.022620000">
        <ele>233.000</ele>
      </trkpt>
      <trkpt lat="47.314920000" lon="5.023130000">
        <ele>233.000</ele>
      </trkpt>
      <trkpt lat="47.314930000" lon="5.023170000">
        <ele>233.000</ele>
      </trkpt>
      <trkpt lat="47.314990000" lon="5.023300000">
        <ele>233.000</ele>
      </trkpt>
      <trkpt lat="47.315210000" lon="5.023620000">
        <ele>233.000</ele>
      </trkpt>
      <trkpt lat="47.315360000" lon="5.023770000">
        <ele>233.000</ele>
      </trkpt>
      <trkpt lat="47.315390000" lon="5.023790000">
        <ele>233.000</ele>
      </trkpt>
      <trkpt lat="47.315600000" lon="5.024030000">
        <ele>233.000</ele>
      </trkpt>
      <trkpt lat="47.315620000" lon="5.024050000">
        <ele>233.000</ele>
      </trkpt>
      <trkpt lat="47.315780000" lon="5.024190000">
        <ele>233.000</ele>
      </trkpt>
      <trkpt lat="47.315930000" lon="5.024370000">
        <ele>233.000</ele>
      </trkpt>
      <trkpt lat="47.315980000" lon="5.024450000">
        <ele>233.000</ele>
      </trkpt>
      <trkpt lat="47.316040000" lon="5.024550000">
        <ele>233.000</ele>
      </trkpt>
      <trkpt lat="47.316160000" lon="5.024720000">
        <ele>233.000</ele>
      </trkpt>
      <trkpt lat="47.316160000" lon="5.024720000">
        <ele>233.000</ele>
      </trkpt>
      <trkpt lat="47.316170000" lon="5.024740000">
        <ele>233.000</ele>
      </trkpt>
      <trkpt lat="47.316350000" lon="5.025070000">
        <ele>233.000</ele>
      </trkpt>
      <trkpt lat="47.316420000" lon="5.025200000">
        <ele>233.000</ele>
      </trkpt>
      <trkpt lat="47.316500000" lon="5.025310000">
        <ele>233.000</ele>
      </trkpt>
      <trkpt lat="47.316550000" lon="5.025380000">
        <ele>233.000</ele>
      </trkpt>
      <trkpt lat="47.316500000" lon="5.025540000">
        <ele>233.000</ele>
      </trkpt>
      <trkpt lat="47.316370000" lon="5.025920000">
        <ele>233.000</ele>
      </trkpt>
      <trkpt lat="47.316300000" lon="5.026070000">
        <ele>233.000</ele>
      </trkpt>
      <trkpt lat="47.316280000" lon="5.026090000">
        <ele>233.000</ele>
      </trkpt>
      <trkpt lat="47.316230000" lon="5.026140000">
        <ele>233.000</ele>
      </trkpt>
      <trkpt lat="47.316180000" lon="5.026310000">
        <ele>233.000</ele>
      </trkpt>
      <trkpt lat="47.316110000" lon="5.026490000">
        <ele>233.000</ele>
      </trkpt>
      <trkpt lat="47.316100000" lon="5.026530000">
        <ele>233.000</ele>
      </trkpt>
      <trkpt lat="47.316060000" lon="5.026640000">
        <ele>233.000</ele>
      </trkpt>
      <trkpt lat="47.316040000" lon="5.026750000">
        <ele>233.000</ele>
      </trkpt>
      <trkpt lat="47.316010000" lon="5.026850000">
        <ele>233.000</ele>
      </trkpt>
      <trkpt lat="47.315940000" lon="5.027070000">
        <ele>233.000</ele>
      </trkpt>
      <trkpt lat="47.315670000" lon="5.027880000">
        <ele>233.000</ele>
      </trkpt>
      <trkpt lat="47.315530000" lon="5.028300000">
        <ele>233.000</ele>
      </trkpt>
      <trkpt lat="47.315460000" lon="5.028510000">
        <ele>233.000</ele>
      </trkpt>
      <trkpt lat="47.315460000" lon="5.028510000">
        <ele>233.000</ele>
      </trkpt>
      <trkpt lat="47.315390000" lon="5.028700000">
        <ele>233.000</ele>
      </trkpt>
      <trkpt lat="47.315370000" lon="5.028880000">
        <ele>233.000</ele>
      </trkpt>
      <trkpt lat="47.315250000" lon="5.029290000">
        <ele>233.000</ele>
      </trkpt>
      <trkpt lat="47.315230000" lon="5.029360000">
        <ele>233.000</ele>
      </trkpt>
      <trkpt lat="47.315220000" lon="5.029370000">
        <ele>233.000</ele>
      </trkpt>
      <trkpt lat="47.315220000" lon="5.029390000">
        <ele>233.000</ele>
      </trkpt>
      <trkpt lat="47.315190000" lon="5.029490000">
        <ele>233.000</ele>
      </trkpt>
      <trkpt lat="47.315170000" lon="5.029560000">
        <ele>233.000</ele>
      </trkpt>
      <trkpt lat="47.315140000" lon="5.029680000">
        <ele>233.000</ele>
      </trkpt>
      <trkpt lat="47.315130000" lon="5.029710000">
        <ele>233.000</ele>
      </trkpt>
      <trkpt lat="47.315130000" lon="5.029740000">
        <ele>233.000</ele>
      </trkpt>
      <trkpt lat="47.315090000" lon="5.029950000">
        <ele>233.000</ele>
      </trkpt>
      <trkpt lat="47.315040000" lon="5.030110000">
        <ele>233.000</ele>
      </trkpt>
      <trkpt lat="47.314730000" lon="5.031250000">
        <ele>233.000</ele>
      </trkpt>
      <trkpt lat="47.314690000" lon="5.031400000">
        <ele>233.000</ele>
      </trkpt>
      <trkpt lat="47.314500000" lon="5.032110000">
        <ele>234.000</ele>
      </trkpt>
      <trkpt lat="47.314460000" lon="5.032240000">
        <ele>235.000</ele>
      </trkpt>
      <trkpt lat="47.314320000" lon="5.032730000">
        <ele>236.000</ele>
      </trkpt>
      <trkpt lat="47.314260000" lon="5.032880000">
        <ele>237.000</ele>
      </trkpt>
      <trkpt lat="47.314230000" lon="5.032950000">
        <ele>237.000</ele>
      </trkpt>
      <trkpt lat="47.314190000" lon="5.033060000">
        <ele>238.000</ele>
      </trkpt>
      <trkpt lat="47.314170000" lon="5.033120000">
        <ele>238.000</ele>
      </trkpt>
      <trkpt lat="47.314150000" lon="5.033150000">
        <ele>239.000</ele>
      </trkpt>
      <trkpt lat="47.314130000" lon="5.033220000">
        <ele>239.000</ele>
      </trkpt>
      <trkpt lat="47.314250000" lon="5.033300000">
        <ele>239.000</ele>
      </trkpt>
      <trkpt lat="47.314390000" lon="5.033420000">
        <ele>240.000</ele>
      </trkpt>
      <trkpt lat="47.314760000" lon="5.033790000">
        <ele>241.000</ele>
      </trkpt>
      <trkpt lat="47.315310000" lon="5.034350000">
        <ele>241.000</ele>
      </trkpt>
      <trkpt lat="47.315400000" lon="5.034440000">
        <ele>241.000</ele>
      </trkpt>
      <trkpt lat="47.315390000" lon="5.034710000">
        <ele>241.000</ele>
      </trkpt>
      <trkpt lat="47.315370000" lon="5.034930000">
        <ele>241.000</ele>
      </trkpt>
      <trkpt lat="47.315340000" lon="5.035460000">
        <ele>241.000</ele>
      </trkpt>
      <trkpt lat="47.315350000" lon="5.035880000">
        <ele>241.000</ele>
      </trkpt>
      <trkpt lat="47.315350000" lon="5.035880000">
        <ele>241.000</ele>
      </trkpt>
      <trkpt lat="47.315350000" lon="5.036240000">
        <ele>241.000</ele>
      </trkpt>
      <trkpt lat="47.315360000" lon="5.036440000">
        <ele>241.000</ele>
      </trkpt>
      <trkpt lat="47.315370000" lon="5.036570000">
        <ele>241.000</ele>
      </trkpt>
      <trkpt lat="47.315380000" lon="5.037700000">
        <ele>241.000</ele>
      </trkpt>
      <trkpt lat="47.315380000" lon="5.038110000">
        <ele>241.000</ele>
      </trkpt>
      <trkpt lat="47.315380000" lon="5.038150000">
        <ele>241.000</ele>
      </trkpt>
      <trkpt lat="47.315380000" lon="5.038280000">
        <ele>241.000</ele>
      </trkpt>
      <trkpt lat="47.315360000" lon="5.038760000">
        <ele>241.000</ele>
      </trkpt>
      <trkpt lat="47.315360000" lon="5.038910000">
        <ele>241.000</ele>
      </trkpt>
      <trkpt lat="47.315360000" lon="5.038950000">
        <ele>241.000</ele>
      </trkpt>
      <trkpt lat="47.315360000" lon="5.040510000">
        <ele>240.000</ele>
      </trkpt>
      <trkpt lat="47.315360000" lon="5.040660000">
        <ele>240.000</ele>
      </trkpt>
      <trkpt lat="47.315350000" lon="5.042040000">
        <ele>240.000</ele>
      </trkpt>
      <trkpt lat="47.315360000" lon="5.042250000">
        <ele>240.000</ele>
      </trkpt>
      <trkpt lat="47.315360000" lon="5.042360000">
        <ele>240.000</ele>
      </trkpt>
      <trkpt lat="47.315410000" lon="5.042660000">
        <ele>239.000</ele>
      </trkpt>
      <trkpt lat="47.315440000" lon="5.042780000">
        <ele>239.000</ele>
      </trkpt>
      <trkpt lat="47.315370000" lon="5.042810000">
        <ele>239.000</ele>
      </trkpt>
      <trkpt lat="47.315350000" lon="5.042820000">
        <ele>239.000</ele>
      </trkpt>
      <trkpt lat="47.315290000" lon="5.042880000">
        <ele>239.000</ele>
      </trkpt>
      <trkpt lat="47.315240000" lon="5.042940000">
        <ele>239.000</ele>
      </trkpt>
      <trkpt lat="47.315220000" lon="5.042990000">
        <ele>238.000</ele>
      </trkpt>
      <trkpt lat="47.315200000" lon="5.043040000">
        <ele>238.000</ele>
      </trkpt>
      <trkpt lat="47.315180000" lon="5.043130000">
        <ele>238.000</ele>
      </trkpt>
      <trkpt lat="47.315170000" lon="5.043220000">
        <ele>238.000</ele>
      </trkpt>
      <trkpt lat="47.315160000" lon="5.043340000">
        <ele>238.000</ele>
      </trkpt>
      <trkpt lat="47.315080000" lon="5.043410000">
        <ele>238.000</ele>
      </trkpt>
      <trkpt lat="47.314750000" lon="5.043540000">
        <ele>238.000</ele>
      </trkpt>
      <trkpt lat="47.314610000" lon="5.043600000">
        <ele>237.000</ele>
      </trkpt>
      <trkpt lat="47.314580000" lon="5.043610000">
        <ele>237.000</ele>
      </trkpt>
      <trkpt lat="47.314430000" lon="5.043720000">
        <ele>237.000</ele>
      </trkpt>
      <trkpt lat="47.313520000" lon="5.044100000">
        <ele>236.000</ele>
      </trkpt>
      <trkpt lat="47.313310000" lon="5.044140000">
        <ele>235.000</ele>
      </trkpt>
      <trkpt lat="47.313260000" lon="5.044160000">
        <ele>234.000</ele>
      </trkpt>
      <trkpt lat="47.312810000" lon="5.044350000">
        <ele>233.000</ele>
      </trkpt>
      <trkpt lat="47.312770000" lon="5.044370000">
        <ele>233.000</ele>
      </trkpt>
      <trkpt lat="47.312580000" lon="5.044500000">
        <ele>232.000</ele>
      </trkpt>
      <trkpt lat="47.311920000" lon="5.044780000">
        <ele>231.000</ele>
      </trkpt>
      <trkpt lat="47.311920000" lon="5.044780000">
        <ele>231.000</ele>
      </trkpt>
      <trkpt lat="47.311520000" lon="5.044950000">
        <ele>230.000</ele>
      </trkpt>
      <trkpt lat="47.311410000" lon="5.044960000">
        <ele>230.000</ele>
      </trkpt>
      <trkpt lat="47.311310000" lon="5.045000000">
        <ele>230.000</ele>
      </trkpt>
      <trkpt lat="47.311150000" lon="5.045080000">
        <ele>229.000</ele>
      </trkpt>
      <trkpt lat="47.311030000" lon="5.045170000">
        <ele>229.000</ele>
      </trkpt>
      <trkpt lat="47.310960000" lon="5.045200000">
        <ele>229.000</ele>
      </trkpt>
    </trkseg>
  </trk>
</gpx>
